OBJECT_NAME,OBJECT_ID,EPOCH,MEAN_MOTION,ECCENTRICITY,INCLINATION,RA_OF_ASC_NODE,ARG_OF_PERICENTER,MEAN_ANOMALY,EPHEMERIS_TYPE,CLASSIFICATION_TYPE,NORAD_CAT_ID,ELEMENT_SET_NO,REV_AT_EPOCH,BSTAR,MEAN_MOTION_DOT,MEAN_MOTION_DDOT
NOAA 20 (JPSS-1),2017-073A,2025-09-24T20:02:32.173440,14.19563313,.00011573,98.7460,205.0472,35.0652,325.0601,0,U,43013,999,40682,.10419192E-3,.176E-5,0
GOES 17,2018-022A,2025-09-24T15:07:55.555968,1.00273031,.00023548,0.2500,91.9405,150.7202,258.5356,0,U,43226,999,2776,0,-.182E-5,0
FENGYUN 2H,2018-050A,2025-09-24T22:47:09.024000,1.00269217,.0002746,2.3429,82.2145,132.9956,209.7423,0,U,43491,999,2677,0,-.124E-5,0
METOP-C,2018-087A,2025-09-24T20:18:25.727040,14.21495562,.00011542,98.7048,326.7756,156.5826,203.5404,0,U,43689,999,35713,.132583E-3,.246E-5,0
GEO-KOMPSAT-2A,2018-100A,2025-09-23T11:14:15.531648,1.00271173,.00015697,0.0420,37.1832,95.5029,166.7104,0,U,43823,999,2495,0,-.347E-5,0
METEOR-M2 2,2019-038A,2025-09-24T23:38:53.316384,14.24240110,.00022974,98.8869,246.7839,72.9257,287.2173,0,U,44387,999,32354,.14060702E-3,.279E-5,0
ARKTIKA-M 1,2021-016A,2025-09-23T07:50:17.402784,2.00628734,.71599706,63.1696,94.8597,268.8502,16.1065,0,U,47719,999,3343,0,-.78E-6,0
FENGYUN 3E,2021-062A,2025-09-24T23:03:48.196800,14.19863521,.00025419,98.7477,269.4075,114.4658,245.6784,0,U,49008,999,21894,.54747568E-4,.72E-6,0
GOES 18,2022-021A,2025-09-23T16:38:23.215200,1.00272340,.00004533,0.0453,30.4534,223.8234,221.1056,0,U,51850,999,392,0,.94E-6,0
NOAA 21 (JPSS-2),2022-150A,2025-09-24T20:54:27.287424,14.19562156,.00009942,98.7323,205.2131,182.5361,177.5810,0,U,54234,999,14890,.11692732E-3,.203E-5,0
METEOSAT-12 (MTG-I1),2022-170C,2025-09-24T18:58:52.525344,1.00270142,.00018171,0.6672,26.2441,121.3327,140.6327,0,U,54743,999,1031,0,-.6E-7,0
TIANMU-1 03,2023-039A,2025-09-24T23:16:10.027200,15.37682723,.00031705,97.5107,68.6233,351.0337,9.0850,0,U,55973,999,13994,.54611951E-3,.20153E-3,0
TIANMU-1 04,2023-039B,2025-09-24T23:09:00.765216,15.37956801,.00038405,97.5038,67.8459,342.9525,17.1590,0,U,55974,999,13994,.54820574E-3,.20413E-3,0
TIANMU-1 05,2023-039C,2025-09-24T22:35:25.914624,15.37651391,.0003366,97.5084,68.3065,15.7402,344.3947,0,U,55975,999,13992,.57293971E-3,.21129E-3,0
TIANMU-1 06,2023-039D,2025-09-24T23:16:36.183936,15.38028696,.00036089,97.5096,68.7389,7.8306,352.2994,0,U,55976,999,13994,.54936342E-3,.20504E-3,0
METEOR-M2 3,2023-091A,2025-09-24T23:54:37.314144,14.24011489,.00033914,98.6500,322.8597,206.5176,153.5830,0,U,57166,999,11677,.38493736E-4,.45E-6,0
TIANMU-1 07,2023-101A,2025-09-24T23:19:50.584800,15.26406551,.00041561,97.2996,319.5953,21.6941,338.4474,0,U,57399,999,12113,.4648279E-3,.12038E-3,0
TIANMU-1 08,2023-101B,2025-09-24T22:31:19.712640,15.26401248,.00061689,97.2986,319.3738,18.0953,342.0504,0,U,57400,999,12112,.43136238E-3,.11167E-3,0
TIANMU-1 09,2023-101C,2025-09-24T23:46:52.813056,15.26377752,.00054119,97.2942,318.9833,20.0639,340.0811,0,U,57401,999,12113,.42885161E-3,.11092E-3,0
TIANMU-1 10,2023-101D,2025-09-24T23:00:58.484736,15.26363485,.0007139,97.3023,319.7191,15.1670,344.9782,0,U,57402,999,12112,.46664992E-3,.12076E-3,0
FENGYUN 3F,2023-111A,2025-09-24T22:45:37.442592,14.19862130,.00014479,98.7179,337.4774,105.1401,254.9936,0,U,57490,999,11122,.10283464E-3,.174E-5,0
ARKTIKA-M 2,2023-198A,2025-09-02T15:16:50.138688,2.00594607,.68650099,63.2042,185.8992,268.5190,18.6674,0,U,58584,999,1255,0,.141E-5,0
TIANMU-1 11,2023-205A,2025-09-25T00:25:23.803968,15.23205661,.00086007,97.3686,289.0606,209.5362,150.5390,0,U,58645,999,9710,.42609433E-3,.10025E-3,0
TIANMU-1 12,2023-205B,2025-09-25T00:56:19.146336,15.23077136,.00073788,97.3672,288.9128,189.4560,170.6539,0,U,58646,999,9709,.39733131E-3,.9305E-4,0
TIANMU-1 13,2023-205C,2025-09-25T00:10:33.755232,15.23076921,.00083222,97.3701,289.0522,170.8718,189.2672,0,U,58647,999,9708,.45129866E-3,.10582E-3,0
TIANMU-1 14,2023-205D,2025-09-24T23:45:41.808672,15.23069267,.00089935,97.3632,288.4572,176.0423,184.0886,0,U,58648,999,9708,.42250618E-3,.9901E-4,0
TIANMU-1 19,2023-208A,2025-09-24T23:13:56.647200,15.25721171,.00060249,97.4353,19.3097,163.8307,196.3124,0,U,58660,999,9680,.57284947E-3,.14556E-3,0
TIANMU-1 20,2023-208B,2025-09-24T22:48:57.917376,15.26919394,.00081482,97.4289,19.6631,177.0056,183.1233,0,U,58661,999,9686,.55427834E-3,.14606E-3,0
TIANMU-1 21,2023-208C,2025-09-24T22:32:41.848800,15.29085951,.00077312,97.4336,21.2294,173.3844,186.7499,0,U,58662,999,9694,.61369104E-3,.17289E-3,0
TIANMU-1 22,2023-208D,2025-09-24T23:00:17.237376,15.25610000,.00041407,97.4348,19.3877,182.1581,177.9640,0,U,58663,999,9681,.52461465E-3,.13274E-3,0
