NOAA 20 (JPSS-1)        
1 43013U 17073A   25267.83509460  .00000176  00000+0  10419-3 0  9997
2 43013  98.7460 205.0472 0001157  35.0652 325.0601 14.19563313406825
GOES 17                 
1 43226U 18022A   25267.63050412 -.00000182  00000+0  00000+0 0  9993
2 43226   0.2500  91.9405 0002354 150.7202 258.5356  1.00273031 27768
FENGYUN 2H              
1 43491U 18050A   25267.94941000 -.00000124  00000+0  00000+0 0  9990
2 43491   2.3429  82.2145 0002746 132.9956 209.7423  1.00269217 26776
METOP-C                 
1 43689U 18087A   25267.84613110  .00000246  00000+0  13258-3 0  9993
2 43689  98.7048 326.7756 0001154 156.5826 203.5404 14.21495562357134
GEO-KOMPSAT-2A          
1 43823U 18100A   25266.46823532 -.00000347  00000+0  00000+0 0  9997
2 43823   0.0420  37.1832 0001569  95.5029 166.7104  1.00271173 24950
METEOR-M2 2             
1 44387U 19038A   25267.98533931  .00000279  00000+0  14061-3 0  9992
2 44387  98.8869 246.7839 0002297  72.9257 287.2173 14.24240110323543
ARKTIKA-M 1             
1 47719U 21016A   25266.32659031 -.00000078  00000+0  00000+0 0  9992
2 47719  63.1696  94.8597 7159970 268.8502  16.1065  2.00628734 33436
FENGYUN 3E              
1 49008U 21062A   25267.96097450  .00000072  00000+0  54748-4 0  9994
2 49008  98.7477 269.4075 0002541 114.4658 245.6784 14.19863521218949
GOES 18                 
1 51850U 22021A   25266.69332425  .00000094  00000+0  00000+0 0  9992
2 51850   0.0453  30.4534 0000453 223.8234 221.1056  1.00272340  3928
NOAA 21 (JPSS-2)        
1 54234U 22150A   25267.87114916  .00000203  00000+0  11693-3 0  9994
2 54234  98.7323 205.2131 0000994 182.5361 177.5810 14.19562156148905
METEOSAT-12 (MTG-I1)    
1 54743U 22170C   25267.79088571 -.00000006  00000+0  00000+0 0  9997
2 54743   0.6672  26.2441 0001817 121.3327 140.6327  1.00270142 10316
TIANMU-1 03             
1 55973U 23039A   25267.96956050  .00020153  00000+0  54612-3 0  9999
2 55973  97.5107  68.6233 0003170 351.0337   9.0850 15.37682723139943
TIANMU-1 04             
1 55974U 23039B   25267.96459219  .00020413  00000+0  54821-3 0  9996
2 55974  97.5038  67.8459 0003840 342.9525  17.1590 15.37956801139942
TIANMU-1 05             
1 55975U 23039C   25267.94127216  .00021129  00000+0  57294-3 0  9996
2 55975  97.5084  68.3065 0003366  15.7402 344.3947 15.37651391139920
TIANMU-1 06             
1 55976U 23039D   25267.96986324  .00020504  00000+0  54936-3 0  9998
2 55976  97.5096  68.7389 0003608   7.8306 352.2994 15.38028696139940
METEOR-M2 3             
1 57166U 23091A   25267.99626521  .00000045  00000+0  38494-4 0  9992
2 57166  98.6500 322.8597 0003391 206.5176 153.5830 14.24011489116775
TIANMU-1 07             
1 57399U 23101A   25267.97211325  .00012038  00000+0  46483-3 0  9993
2 57399  97.2996 319.5953 0004156  21.6941 338.4474 15.26406551121137
TIANMU-1 08             
1 57400U 23101B   25267.93842260  .00011167  00000+0  43136-3 0  9994
2 57400  97.2986 319.3738 0006168  18.0953 342.0504 15.26401248121128
TIANMU-1 09             
1 57401U 23101C   25267.99088904  .00011092  00000+0  42885-3 0  9995
2 57401  97.2942 318.9833 0005411  20.0639 340.0811 15.26377752121138
TIANMU-1 10             
1 57402U 23101D   25267.95901024  .00012076  00000+0  46665-3 0  9992
2 57402  97.3023 319.7191 0007139  15.1670 344.9782 15.26363485121122
FENGYUN 3F              
1 57490U 23111A   25267.94835003  .00000174  00000+0  10283-3 0  9995
2 57490  98.7179 337.4774 0001447 105.1401 254.9936 14.19862130111221
ARKTIKA-M 2             
1 58584U 23198A   25245.63669142  .00000141  00000+0  00000+0 0  9992
2 58584  63.2042 185.8992 6865009 268.5190  18.6674  2.00594607 12554
TIANMU-1 11             
1 58645U 23205A   25268.01763662  .00010025  00000+0  42609-3 0  9995
2 58645  97.3686 289.0606 0008600 209.5362 150.5390 15.23205661 97102
TIANMU-1 12             
1 58646U 23205B   25268.03911049  .00009305  00000+0  39733-3 0  9995
2 58646  97.3672 288.9128 0007378 189.4560 170.6539 15.23077136 97092
TIANMU-1 13             
1 58647U 23205C   25268.00733513  .00010582  00000+0  45130-3 0  9998
2 58647  97.3701 289.0522 0008322 170.8718 189.2672 15.23076921 97089
TIANMU-1 14             
1 58648U 23205D   25267.99006723  .00009901  00000+0  42251-3 0  9996
2 58648  97.3632 288.4572 0008993 176.0423 184.0886 15.23069267 97081
TIANMU-1 19             
1 58660U 23208A   25267.96801675  .00014556  00000+0  57285-3 0  9994
2 58660  97.4353  19.3097 0006024 163.8307 196.3124 15.25721171 96808
TIANMU-1 20             
1 58661U 23208B   25267.95067034  .00014606  00000+0  55428-3 0  9990
2 58661  97.4289  19.6631 0008148 177.0056 183.1233 15.26919394 96869
TIANMU-1 21             
1 58662U 23208C   25267.93937325  .00017289  00000+0  61369-3 0  9999
2 58662  97.4336  21.2294 0007731 173.3844 186.7499 15.29085951 96946
TIANMU-1 22             
1 58663U 23208D   25267.95853284  .00013274  00000+0  52461-3 0  9996
2 58663  97.4348  19.3877 0004140 182.1581 177.9640 15.25610000 96813
